SL-4 R/B                
1 39679U 14021B   25341.93319744  .00015080  00000+0  35940-3 0  9994
2 39679  51.6076  63.9512 0102227 128.8538 232.1622 15.36492788642155
ALOS-2                  
1 39766U 14029A   25341.94107849  .00002857  00000+0  38942-3 0  9994
2 39766  97.9232  76.8558 0001465 104.3410 255.7964 14.79460828623304
YAOGAN-29               
1 41038U 15069A   25341.96123827  .00000767  00000+0  10137-3 0  9994
2 41038  98.0222   5.1175 0000407 351.5246   8.5961 14.82874098542288
ASTRO-H (HITOMI)        
1 41337U 16012A   25341.99479294  .00004628  00000+0  27732-3 0  9999
2 41337  30.9985 227.9623 0009481 130.8441 229.3020 15.09307060538362
HXMT (HUIYAN)           
1 42758U 17034A   25341.91589245  .00004837  00000+0  25493-3 0  9996
2 42758  43.0124 166.3960 0032158  12.3778 347.7853 15.16185545468602
CZ-2C R/B               
1 43521U 18054D   25341.84933154  .00106529  00000+0  74239-3 0  9995
2 43521  35.1325 214.0339 0016147  92.1872 268.0709 15.72848675414280
SAOCOM 1A               
1 43641U 18076A   25341.94615827  .00000864  00000+0  11514-3 0  9999
2 43641  97.8853 166.4384 0001493  87.6144 272.5240 14.82149057387774
H-2A R/B                
1 43682U 18084L   25341.81056462  .00028108  00000+0  76482-3 0  9999
2 43682  98.8776 174.8690 0027750 343.4792  16.5541 15.37113079391640
SAOCOM 1B               
1 46265U 20059A   25341.97741569  .00000472  00000+0  65908-4 0  9996
2 46265  97.8849 165.5700 0001250  88.4920 271.6437 14.82150686285166
CSS (TIANHE)            
1 48274U 21035A   25341.97426671  .00023028  00000+0  29194-3 0  9995
2 48274  41.4683  45.6321 0009253 352.4121   7.6575 15.58863749263288
COSMOS 2550             
1 48865U 21056A   25341.96589678  .00003770  00000+0  12034-3 0  9997
2 48865  67.1449 318.3726 0008293 269.4212  90.5992 15.33835433249391
CZ-2C R/B               
1 52794U 22058K   25341.96692426  .00031632  00000+0  57227-3 0  9993
2 52794  50.1914  67.8839 0045866 178.7426 181.3666 15.48172736195891
