CCSDS_OMM_VERS = 2.0
CREATION_DATE  = 
ORIGINATOR     = 

OBJECT_NAME    = SL-4 R/B
OBJECT_ID      = 2014-021B
CENTER_NAME    = EARTH
REF_FRAME      = TEME
TIME_SYSTEM    = UTC
MEAN_ELEMENT_THEORY = SGP/SGP4

EPOCH          = 2025-12-07T22:23:48.258816
MEAN_MOTION    = 15.36492788
ECCENTRICITY   = .01022274
INCLINATION    = 51.6076
RA_OF_ASC_NODE = 63.9512
ARG_OF_PERICENTER = 128.8538
MEAN_ANOMALY   = 232.1622

EPHEMERIS_TYPE = 0
CLASSIFICATION_TYPE = U
NORAD_CAT_ID   = 39679
ELEMENT_SET_NO = 999
REV_AT_EPOCH   = 64215
BSTAR          = .35940247E-3
MEAN_MOTION_DOT = .1508E-3
MEAN_MOTION_DDOT = 0

CCSDS_OMM_VERS = 2.0
CREATION_DATE  = 
ORIGINATOR     = 

OBJECT_NAME    = ALOS-2
OBJECT_ID      = 2014-029A
CENTER_NAME    = EARTH
REF_FRAME      = TEME
TIME_SYSTEM    = UTC
MEAN_ELEMENT_THEORY = SGP/SGP4

EPOCH          = 2025-12-07T22:35:09.181536
MEAN_MOTION    = 14.79460828
ECCENTRICITY   = .00014651
INCLINATION    = 97.9232
RA_OF_ASC_NODE = 76.8558
ARG_OF_PERICENTER = 104.3410
MEAN_ANOMALY   = 255.7964

EPHEMERIS_TYPE = 0
CLASSIFICATION_TYPE = U
NORAD_CAT_ID   = 39766
ELEMENT_SET_NO = 999
REV_AT_EPOCH   = 62330
BSTAR          = .38942217E-3
MEAN_MOTION_DOT = .2857E-4
MEAN_MOTION_DDOT = 0

CCSDS_OMM_VERS = 2.0
CREATION_DATE  = 
ORIGINATOR     = 

OBJECT_NAME    = YAOGAN-29
OBJECT_ID      = 2015-069A
CENTER_NAME    = EARTH
REF_FRAME      = TEME
TIME_SYSTEM    = UTC
MEAN_ELEMENT_THEORY = SGP/SGP4

EPOCH          = 2025-12-07T23:04:10.986528
MEAN_MOTION    = 14.82874098
ECCENTRICITY   = .00004077
INCLINATION    = 98.0222
RA_OF_ASC_NODE = 5.1175
ARG_OF_PERICENTER = 351.5246
MEAN_ANOMALY   = 8.5961

EPHEMERIS_TYPE = 0
CLASSIFICATION_TYPE = U
NORAD_CAT_ID   = 41038
ELEMENT_SET_NO = 999
REV_AT_EPOCH   = 54228
BSTAR          = .10137294E-3
MEAN_MOTION_DOT = .767E-5
MEAN_MOTION_DDOT = 0

CCSDS_OMM_VERS = 2.0
CREATION_DATE  = 
ORIGINATOR     = 

OBJECT_NAME    = ASTRO-H (HITOMI)
OBJECT_ID      = 2016-012A
CENTER_NAME    = EARTH
REF_FRAME      = TEME
TIME_SYSTEM    = UTC
MEAN_ELEMENT_THEORY = SGP/SGP4

EPOCH          = 2025-12-07T23:52:30.110016
MEAN_MOTION    = 15.09307060
ECCENTRICITY   = .00094818
INCLINATION    = 30.9985
RA_OF_ASC_NODE = 227.9623
ARG_OF_PERICENTER = 130.8441
MEAN_ANOMALY   = 229.3020

EPHEMERIS_TYPE = 0
CLASSIFICATION_TYPE = U
NORAD_CAT_ID   = 41337
ELEMENT_SET_NO = 999
REV_AT_EPOCH   = 53836
BSTAR          = .27732264E-3
MEAN_MOTION_DOT = .4628E-4
MEAN_MOTION_DDOT = 0

CCSDS_OMM_VERS = 2.0
CREATION_DATE  = 
ORIGINATOR     = 

OBJECT_NAME    = HXMT (HUIYAN)
OBJECT_ID      = 2017-034A
CENTER_NAME    = EARTH
REF_FRAME      = TEME
TIME_SYSTEM    = UTC
MEAN_ELEMENT_THEORY = SGP/SGP4

EPOCH          = 2025-12-07T21:58:53.107680
MEAN_MOTION    = 15.16185545
ECCENTRICITY   = .00321583
INCLINATION    = 43.0124
RA_OF_ASC_NODE = 166.3960
ARG_OF_PERICENTER = 12.3778
MEAN_ANOMALY   = 347.7853

EPHEMERIS_TYPE = 0
CLASSIFICATION_TYPE = U
NORAD_CAT_ID   = 42758
ELEMENT_SET_NO = 999
REV_AT_EPOCH   = 46860
BSTAR          = .25492897E-3
MEAN_MOTION_DOT = .4837E-4
MEAN_MOTION_DDOT = 0

CCSDS_OMM_VERS = 2.0
CREATION_DATE  = 
ORIGINATOR     = 

OBJECT_NAME    = CZ-2C R/B
OBJECT_ID      = 2018-054D
CENTER_NAME    = EARTH
REF_FRAME      = TEME
TIME_SYSTEM    = UTC
MEAN_ELEMENT_THEORY = SGP/SGP4

EPOCH          = 2025-12-07T20:23:02.245056
MEAN_MOTION    = 15.72848675
ECCENTRICITY   = .00161476
INCLINATION    = 35.1325
RA_OF_ASC_NODE = 214.0339
ARG_OF_PERICENTER = 92.1872
MEAN_ANOMALY   = 268.0709

EPHEMERIS_TYPE = 0
CLASSIFICATION_TYPE = U
NORAD_CAT_ID   = 43521
ELEMENT_SET_NO = 999
REV_AT_EPOCH   = 41428
BSTAR          = .74238981E-3
MEAN_MOTION_DOT = .106529E-2
MEAN_MOTION_DDOT = 0

CCSDS_OMM_VERS = 2.0
CREATION_DATE  = 
ORIGINATOR     = 

OBJECT_NAME    = SAOCOM 1A
OBJECT_ID      = 2018-076A
CENTER_NAME    = EARTH
REF_FRAME      = TEME
TIME_SYSTEM    = UTC
MEAN_ELEMENT_THEORY = SGP/SGP4

EPOCH          = 2025-12-07T22:42:28.074528
MEAN_MOTION    = 14.82149057
ECCENTRICITY   = .00014936
INCLINATION    = 97.8853
RA_OF_ASC_NODE = 166.4384
ARG_OF_PERICENTER = 87.6144
MEAN_ANOMALY   = 272.5240

EPHEMERIS_TYPE = 0
CLASSIFICATION_TYPE = U
NORAD_CAT_ID   = 43641
ELEMENT_SET_NO = 999
REV_AT_EPOCH   = 38777
BSTAR          = .11513722E-3
MEAN_MOTION_DOT = .864E-5
MEAN_MOTION_DDOT = 0

CCSDS_OMM_VERS = 2.0
CREATION_DATE  = 
ORIGINATOR     = 

OBJECT_NAME    = H-2A R/B
OBJECT_ID      = 2018-084L
CENTER_NAME    = EARTH
REF_FRAME      = TEME
TIME_SYSTEM    = UTC
MEAN_ELEMENT_THEORY = SGP/SGP4

EPOCH          = 2025-12-07T19:27:12.783168
MEAN_MOTION    = 15.37113079
ECCENTRICITY   = .00277503
INCLINATION    = 98.8776
RA_OF_ASC_NODE = 174.8690
ARG_OF_PERICENTER = 343.4792
MEAN_ANOMALY   = 16.5541

EPHEMERIS_TYPE = 0
CLASSIFICATION_TYPE = U
NORAD_CAT_ID   = 43682
ELEMENT_SET_NO = 999
REV_AT_EPOCH   = 39164
BSTAR          = .76481622E-3
MEAN_MOTION_DOT = .28108E-3
MEAN_MOTION_DDOT = 0

CCSDS_OMM_VERS = 2.0
CREATION_DATE  = 
ORIGINATOR     = 

OBJECT_NAME    = SAOCOM 1B
OBJECT_ID      = 2020-059A
CENTER_NAME    = EARTH
REF_FRAME      = TEME
TIME_SYSTEM    = UTC
MEAN_ELEMENT_THEORY = SGP/SGP4

EPOCH          = 2025-12-07T23:27:28.715616
MEAN_MOTION    = 14.82150686
ECCENTRICITY   = .00012502
INCLINATION    = 97.8849
RA_OF_ASC_NODE = 165.5700
ARG_OF_PERICENTER = 88.4920
MEAN_ANOMALY   = 271.6437

EPHEMERIS_TYPE = 0
CLASSIFICATION_TYPE = U
NORAD_CAT_ID   = 46265
ELEMENT_SET_NO = 999
REV_AT_EPOCH   = 28516
BSTAR          = .65908004E-4
MEAN_MOTION_DOT = .472E-5
MEAN_MOTION_DDOT = 0

CCSDS_OMM_VERS = 2.0
CREATION_DATE  = 
ORIGINATOR     = 

OBJECT_NAME    = CSS (TIANHE)
OBJECT_ID      = 2021-035A
CENTER_NAME    = EARTH
REF_FRAME      = TEME
TIME_SYSTEM    = UTC
MEAN_ELEMENT_THEORY = SGP/SGP4

EPOCH          = 2025-12-07T23:22:56.643744
MEAN_MOTION    = 15.58863749
ECCENTRICITY   = .00092535
INCLINATION    = 41.4683
RA_OF_ASC_NODE = 45.6321
ARG_OF_PERICENTER = 352.4121
MEAN_ANOMALY   = 7.6575

EPHEMERIS_TYPE = 0
CLASSIFICATION_TYPE = U
NORAD_CAT_ID   = 48274
ELEMENT_SET_NO = 999
REV_AT_EPOCH   = 26328
BSTAR          = .29193568E-3
MEAN_MOTION_DOT = .23028E-3
MEAN_MOTION_DDOT = 0

CCSDS_OMM_VERS = 2.0
CREATION_DATE  = 
ORIGINATOR     = 

OBJECT_NAME    = COSMOS 2550
OBJECT_ID      = 2021-056A
CENTER_NAME    = EARTH
REF_FRAME      = TEME
TIME_SYSTEM    = UTC
MEAN_ELEMENT_THEORY = SGP/SGP4

EPOCH          = 2025-12-07T23:10:53.481792
MEAN_MOTION    = 15.33835433
ECCENTRICITY   = .00082935
INCLINATION    = 67.1449
RA_OF_ASC_NODE = 318.3726
ARG_OF_PERICENTER = 269.4212
MEAN_ANOMALY   = 90.5992

EPHEMERIS_TYPE = 0
CLASSIFICATION_TYPE = U
NORAD_CAT_ID   = 48865
ELEMENT_SET_NO = 999
REV_AT_EPOCH   = 24939
BSTAR          = .12033789E-3
MEAN_MOTION_DOT = .377E-4
MEAN_MOTION_DDOT = 0

CCSDS_OMM_VERS = 2.0
CREATION_DATE  = 
ORIGINATOR     = 

OBJECT_NAME    = CZ-2C R/B
OBJECT_ID      = 2022-058K
CENTER_NAME    = EARTH
REF_FRAME      = TEME
TIME_SYSTEM    = UTC
MEAN_ELEMENT_THEORY = SGP/SGP4

EPOCH          = 2025-12-07T23:12:22.256064
MEAN_MOTION    = 15.48172736
ECCENTRICITY   = .00458661
INCLINATION    = 50.1914
RA_OF_ASC_NODE = 67.8839
ARG_OF_PERICENTER = 178.7426
MEAN_ANOMALY   = 181.3666

EPHEMERIS_TYPE = 0
CLASSIFICATION_TYPE = U
NORAD_CAT_ID   = 52794
ELEMENT_SET_NO = 999
REV_AT_EPOCH   = 19589
BSTAR          = .5722677E-3
MEAN_MOTION_DOT = .31632E-3
MEAN_MOTION_DDOT = 0

